CCSDS_OMM_VERS = 2.0
CREATION_DATE  = 
ORIGINATOR     = 

OBJECT_NAME    = LVM3 R/B
OBJECT_ID      = 2025-309B
CENTER_NAME    = EARTH
REF_FRAME      = TEME
TIME_SYSTEM    = UTC
MEAN_ELEMENT_THEORY = SGP/SGP4

EPOCH          = 2025-12-26T17:58:57.873216
MEAN_MOTION    = 15.19340101
ECCENTRICITY   = .0010474
INCLINATION    = 52.9350
RA_OF_ASC_NODE = 40.7629
ARG_OF_PERICENTER = 355.6984
MEAN_ANOMALY   = 4.3917

EPHEMERIS_TYPE = 0
CLASSIFICATION_TYPE = U
NORAD_CAT_ID   = 67233
ELEMENT_SET_NO = 999
REV_AT_EPOCH   = 40
BSTAR          = .72626686E-4
MEAN_MOTION_DOT = .1231E-4
MEAN_MOTION_DDOT = 0

CCSDS_OMM_VERS = 2.0
CREATION_DATE  = 
ORIGINATOR     = 

OBJECT_NAME    = 2025-310A
OBJECT_ID      = 2025-310A
CENTER_NAME    = EARTH
REF_FRAME      = TEME
TIME_SYSTEM    = UTC
MEAN_ELEMENT_THEORY = SGP/SGP4

EPOCH          = 2025-12-29T07:34:01.585632
MEAN_MOTION    = 15.11153747
ECCENTRICITY   = .01516124
INCLINATION    = 97.9657
RA_OF_ASC_NODE = 8.0673
ARG_OF_PERICENTER = 68.9370
MEAN_ANOMALY   = 292.7996

EPHEMERIS_TYPE = 0
CLASSIFICATION_TYPE = U
NORAD_CAT_ID   = 67234
ELEMENT_SET_NO = 999
REV_AT_EPOCH   = 57
BSTAR          = .1391438E-3
MEAN_MOTION_DOT = .2994E-4
MEAN_MOTION_DDOT = 0

CCSDS_OMM_VERS = 2.0
CREATION_DATE  = 
ORIGINATOR     = 

OBJECT_NAME    = SL-4 R/B
OBJECT_ID      = 2025-310B
CENTER_NAME    = EARTH
REF_FRAME      = TEME
TIME_SYSTEM    = UTC
MEAN_ELEMENT_THEORY = SGP/SGP4

EPOCH          = 2025-12-30T22:41:34.902240
MEAN_MOTION    = 15.50179935
ECCENTRICITY   = .02996725
INCLINATION    = 97.9679
RA_OF_ASC_NODE = 10.0184
ARG_OF_PERICENTER = 57.0996
MEAN_ANOMALY   = 305.8706

EPHEMERIS_TYPE = 0
CLASSIFICATION_TYPE = U
NORAD_CAT_ID   = 67235
ELEMENT_SET_NO = 999
REV_AT_EPOCH   = 83
BSTAR          = .3058068E-3
MEAN_MOTION_DOT = .131108E-2
MEAN_MOTION_DDOT = .2208242E-5

CCSDS_OMM_VERS = 2.0
CREATION_DATE  = 
ORIGINATOR     = 

OBJECT_NAME    = FENGYUN 4C
OBJECT_ID      = 2025-312A
CENTER_NAME    = EARTH
REF_FRAME      = TEME
TIME_SYSTEM    = UTC
MEAN_ELEMENT_THEORY = SGP/SGP4

EPOCH          = 2025-12-26T21:48:20.798784
MEAN_MOTION    = 2.27841578
ECCENTRICITY   = .7309751
INCLINATION    = 28.4641
RA_OF_ASC_NODE = 334.3215
ARG_OF_PERICENTER = 179.7824
MEAN_ANOMALY   = 181.1675

EPHEMERIS_TYPE = 0
CLASSIFICATION_TYPE = U
NORAD_CAT_ID   = 67246
ELEMENT_SET_NO = 999
REV_AT_EPOCH   = 1
BSTAR          = .21251E-2
MEAN_MOTION_DOT = .39214E-3
MEAN_MOTION_DDOT = .41525E-6

CCSDS_OMM_VERS = 2.0
CREATION_DATE  = 
ORIGINATOR     = 

OBJECT_NAME    = CZ-3B R/B
OBJECT_ID      = 2025-312B
CENTER_NAME    = EARTH
REF_FRAME      = TEME
TIME_SYSTEM    = UTC
MEAN_ELEMENT_THEORY = SGP/SGP4

EPOCH          = 2026-01-03T09:40:17.275008
MEAN_MOTION    = 2.40117268
ECCENTRICITY   = .7234274
INCLINATION    = 28.4338
RA_OF_ASC_NODE = 331.3358
ARG_OF_PERICENTER = 183.8270
MEAN_ANOMALY   = 163.8898

EPHEMERIS_TYPE = 0
CLASSIFICATION_TYPE = U
NORAD_CAT_ID   = 67247
ELEMENT_SET_NO = 999
REV_AT_EPOCH   = 18
BSTAR          = .55376E-3
MEAN_MOTION_DOT = .145154E-2
MEAN_MOTION_DDOT = .50902E-6

CCSDS_OMM_VERS = 2.0
CREATION_DATE  = 
ORIGINATOR     = 

OBJECT_NAME    = TIANHUI 7
OBJECT_ID      = 2025-314A
CENTER_NAME    = EARTH
REF_FRAME      = TEME
TIME_SYSTEM    = UTC
MEAN_ELEMENT_THEORY = SGP/SGP4

EPOCH          = 2025-12-31T22:10:09.537600
MEAN_MOTION    = 15.25236623
ECCENTRICITY   = .0001255
INCLINATION    = 97.4225
RA_OF_ASC_NODE = 78.1262
ARG_OF_PERICENTER = 100.3877
MEAN_ANOMALY   = 259.7502

EPHEMERIS_TYPE = 0
CLASSIFICATION_TYPE = U
NORAD_CAT_ID   = 67300
ELEMENT_SET_NO = 999
REV_AT_EPOCH   = 28
BSTAR          = .14121E-3
MEAN_MOTION_DOT = .3476E-4
MEAN_MOTION_DDOT = 0

CCSDS_OMM_VERS = 2.0
CREATION_DATE  = 
ORIGINATOR     = 

OBJECT_NAME    = CZ-4B R/B
OBJECT_ID      = 2025-314B
CENTER_NAME    = EARTH
REF_FRAME      = TEME
TIME_SYSTEM    = UTC
MEAN_ELEMENT_THEORY = SGP/SGP4

EPOCH          = 2025-12-31T18:03:23.820192
MEAN_MOTION    = 15.66057522
ECCENTRICITY   = .01499925
INCLINATION    = 97.3775
RA_OF_ASC_NODE = 78.0261
ARG_OF_PERICENTER = 13.3608
MEAN_ANOMALY   = 347.1555

EPHEMERIS_TYPE = 0
CLASSIFICATION_TYPE = U
NORAD_CAT_ID   = 67301
ELEMENT_SET_NO = 999
REV_AT_EPOCH   = 21
BSTAR          = .52684287E-3
MEAN_MOTION_DOT = .99613E-3
MEAN_MOTION_DDOT = .4870574E-5

CCSDS_OMM_VERS = 2.0
CREATION_DATE  = 
ORIGINATOR     = 

OBJECT_NAME    = 2025-315A
OBJECT_ID      = 2025-315A
CENTER_NAME    = EARTH
REF_FRAME      = TEME
TIME_SYSTEM    = UTC
MEAN_ELEMENT_THEORY = SGP/SGP4

EPOCH          = 2025-12-31T14:33:49.080384
MEAN_MOTION    = 2.27863390
ECCENTRICITY   = .72957596
INCLINATION    = 19.4941
RA_OF_ASC_NODE = 100.4624
ARG_OF_PERICENTER = 180.0324
MEAN_ANOMALY   = 168.0161

EPHEMERIS_TYPE = 0
CLASSIFICATION_TYPE = U
NORAD_CAT_ID   = 67302
ELEMENT_SET_NO = 999
REV_AT_EPOCH   = 2
BSTAR          = .11168251E-2
MEAN_MOTION_DOT = .7587E-4
MEAN_MOTION_DDOT = 0

CCSDS_OMM_VERS = 2.0
CREATION_DATE  = 
ORIGINATOR     = 

OBJECT_NAME    = CZ-7A R/B
OBJECT_ID      = 2025-315B
CENTER_NAME    = EARTH
REF_FRAME      = TEME
TIME_SYSTEM    = UTC
MEAN_ELEMENT_THEORY = SGP/SGP4

EPOCH          = 2025-12-31T04:18:04.779936
MEAN_MOTION    = 2.38363488
ECCENTRICITY   = .72340832
INCLINATION    = 19.7725
RA_OF_ASC_NODE = 100.7388
ARG_OF_PERICENTER = 178.7114
MEAN_ANOMALY   = 185.5568

EPHEMERIS_TYPE = 0
CLASSIFICATION_TYPE = U
NORAD_CAT_ID   = 67303
ELEMENT_SET_NO = 999
REV_AT_EPOCH   = 2
BSTAR          = .12200941E-2
MEAN_MOTION_DOT = .41123E-3
MEAN_MOTION_DDOT = .76302E-6

